OBJECT_NAME,OBJECT_ID,EPOCH,MEAN_MOTION,ECCENTRICITY,INCLINATION,RA_OF_ASC_NODE,ARG_OF_PERICENTER,MEAN_ANOMALY,EPHEMERIS_TYPE,CLASSIFICATION_TYPE,NORAD_CAT_ID,ELEMENT_SET_NO,REV_AT_EPOCH,BSTAR,MEAN_MOTION_DOT,MEAN_MOTION_DDOT
STARLINK-36808,2026-035C,2026-06-30T09:36:40.553568,15.33436712,.00018245,97.2837,114.4531,112.0220,248.1216,0,U,67881,999,2126,.60058158E-3,.19359E-3,0
STARLINK-36817,2026-035D,2026-06-30T08:30:08.961696,15.33435643,.00031194,97.2852,114.3629,83.3798,276.7800,0,U,67882,999,2125,.16737728E-2,.5434E-3,0
STARLINK-36856,2026-035E,2026-06-30T17:57:50.069088,15.33458021,.0001822,97.2838,114.7439,95.7965,264.3485,0,U,67883,999,2131,.98401E-3,.31841E-3,0
STARLINK-36842,2026-035F,2026-06-30T18:25:14.642976,15.33461238,.0002529,97.2818,114.7154,105.8792,254.2730,0,U,67884,999,2131,.87807E-3,.28395E-3,0
STARLINK-36826,2026-035G,2026-06-30T08:45:46.726560,15.33444036,.00025293,97.2843,114.3431,107.4882,252.6637,0,U,67885,999,2125,.34511997E-3,.11083E-3,0
STARLINK-36390,2026-035H,2026-06-30T08:57:31.650336,15.33445125,.00023931,97.2834,114.3336,107.5381,252.6124,0,U,67886,999,2125,.68019279E-3,.21949E-3,0
STARLINK-36368,2026-035J,2026-06-30T19:12:13.468032,15.33458955,.0001651,97.2842,114.8270,84.8597,275.2834,0,U,67887,999,2132,.10343E-2,.33479E-3,0
STARLINK-36801,2026-035K,2026-06-30T08:18:21.977280,15.33448950,.00014981,97.2837,114.3740,91.1165,269.0249,0,U,67888,999,2125,.38593897E-3,.12407E-3,0
STARLINK-36372,2026-035L,2026-06-30T19:23:58.238880,15.33448649,.000164,97.2834,114.8181,105.8386,254.3037,0,U,67889,999,2132,.48513E-3,.15621E-3,0
STARLINK-36363,2026-035M,2026-06-30T18:13:29.880768,15.33455111,.0001579,97.2837,114.7284,90.9006,269.2418,0,U,67890,999,2131,.93452E-3,.30226E-3,0
STARLINK-36816,2026-035N,2026-06-30T18:34:51.381120,15.33469924,.000171,97.2840,113.7984,99.3263,260.8173,0,U,67891,999,2125,.82639E-3,.2672E-3,0
STARLINK-36813,2026-035P,2026-06-30T09:13:11.068032,15.33452581,.00017829,97.2828,114.4732,97.2891,262.8554,0,U,67892,999,2126,.39538717E-3,.12714E-3,0
STARLINK-36803,2026-035Q,2026-06-30T18:48:43.820064,15.33465619,.0001647,97.2842,114.8461,91.2067,268.9365,0,U,67893,999,2132,.10644E-2,.34468E-3,0
STARLINK-36846,2026-035R,2026-06-30T18:17:24.804096,15.33457472,.0001688,97.2837,114.7247,86.4498,273.6938,0,U,67894,999,2131,.99179E-3,.32093E-3,0
STARLINK-36866,2026-035S,2026-06-30T18:01:44.838624,15.33463968,.0002375,97.2831,114.7373,100.0451,260.1060,0,U,67895,999,2131,.59171E-3,.19088E-3,0
STARLINK-36877,2026-035T,2026-06-30T09:32:45.830688,15.33441388,.00019541,97.2856,114.4570,37.2590,322.8788,0,U,67896,999,2126,.4038053E-3,.12983E-3,0
STARLINK-36870,2026-035U,2026-06-30T08:06:37.469952,15.33433820,.00019891,97.2860,114.3869,105.7312,254.4150,0,U,67897,999,2125,-.4689825E-4,-.1588E-4,0
STARLINK-36810,2026-035V,2026-06-30T19:20:03.732000,15.33466311,.0001695,97.2835,114.8200,94.4369,265.7067,0,U,67898,999,2132,.76922E-3,.24857E-3,0
STARLINK-36878,2026-035W,2026-06-30T18:40:54.172128,15.33463487,.00016,97.2844,114.8539,91.6688,268.4738,0,U,67899,999,2132,.11897E-2,.38551E-3,0
STARLINK-36361,2026-035X,2026-06-30T18:44:49.180992,15.33461219,.0001746,97.2845,114.8522,95.0077,265.1365,0,U,67900,999,2132,.12127E-2,.39301E-3,0
STARLINK-36336,2026-035Y,2026-06-30T08:10:31.936224,15.33424485,.00017355,97.2838,114.3792,100.2303,259.9135,0,U,67901,999,2125,.66863396E-3,.21559E-3,0
STARLINK-36876,2026-035Z,2026-06-30T18:52:38.427168,15.33471145,.000299,97.2837,114.8470,102.2814,257.8763,0,U,67902,999,2132,.87154E-3,.28193E-3,0
STARLINK-36257,2026-035AA,2026-06-30T18:05:39.607296,15.33454534,.0001341,97.2834,114.7355,64.2351,295.9030,0,U,67903,999,2131,.10928E-2,.35381E-3,0
STARLINK-36814,2026-036A,2026-06-30T18:48:18.345024,15.27579638,.000077,43.0017,327.0057,283.0310,77.0456,0,U,67904,999,2101,.1035E-2,.28327E-3,0
STARLINK-36729,2026-036B,2026-06-29T20:46:23.787840,15.27608129,.00016719,43.0028,332.1381,270.4948,89.5712,0,U,67905,999,2087,.10467222E-2,.28678E-3,0
STARLINK-36763,2026-036C,2026-06-30T18:39:03.162816,15.27569634,.0001443,43.0031,326.9365,276.2517,83.8170,0,U,67906,999,2101,.10741E-2,.29403E-3,0
STARLINK-36742,2026-036D,2026-06-30T02:51:55.137024,15.27593860,.00012061,43.0011,330.5990,275.3061,84.7653,0,U,67907,999,2091,.10805182E-2,.29603E-3,0
STARLINK-36827,2026-036E,2026-06-29T18:55:35.317344,15.27600066,.00019124,42.9995,332.4090,278.1507,81.9128,0,U,67908,999,2086,.94883449E-3,.25956E-3,0
STARLINK-36822,2026-036F,2026-06-30T18:22:22.660320,15.27610333,.0001241,43.0006,326.8458,285.0975,74.9740,0,U,67909,999,2101,.55424E-3,.15035E-3,0
STARLINK-36847,2026-036G,2026-06-30T18:16:50.619936,15.27570956,.0000407,42.9970,326.8126,94.8951,265.1947,0,U,67910,999,2101,.10759E-2,.29453E-3,0
