[
  {
    "name": "STARLINK-36808",
    "noradId": "67881",
    "line1": "1 67881U 26035C   26181.40046937  .00019359  00000+0  60058-3 0  9995",
    "line2": "2 67881  97.2837 114.4531 0001824 112.0220 248.1216 15.33436712 21260"
  },
  {
    "name": "STARLINK-36817",
    "noradId": "67882",
    "line1": "1 67882U 26035D   26181.35427039  .00054340  00000+0  16738-2 0  9990",
    "line2": "2 67882  97.2852 114.3629 0003119  83.3798 276.7800 15.33435643 21251"
  },
  {
    "name": "STARLINK-36856",
    "noradId": "67883",
    "line1": "1 67883U 26035E   26181.74849617  .00031841  00000+0  98401-3 0  9993",
    "line2": "2 67883  97.2838 114.7439 0001822  95.7965 264.3485 15.33458021 21315"
  },
  {
    "name": "STARLINK-36842",
    "noradId": "67884",
    "line1": "1 67884U 26035F   26181.76753059  .00028395  00000+0  87807-3 0  9998",
    "line2": "2 67884  97.2818 114.7154 0002529 105.8792 254.2730 15.33461238 21319"
  },
  {
    "name": "STARLINK-36826",
    "noradId": "67885",
    "line1": "1 67885U 26035G   26181.36512415  .00011083  00000+0  34512-3 0  9995",
    "line2": "2 67885  97.2843 114.3431 0002529 107.4882 252.6637 15.33444036 21258"
  },
  {
    "name": "STARLINK-36390",
    "noradId": "67886",
    "line1": "1 67886U 26035H   26181.37328299  .00021949  00000+0  68019-3 0  9993",
    "line2": "2 67886  97.2834 114.3336 0002393 107.5381 252.6124 15.33445125 21258"
  },
  {
    "name": "STARLINK-36368",
    "noradId": "67887",
    "line1": "1 67887U 26035J   26181.80015588  .00033479  00000+0  10343-2 0  9993",
    "line2": "2 67887  97.2842 114.8270 0001651  84.8597 275.2834 15.33458955 21324"
  },
  {
    "name": "STARLINK-36801",
    "noradId": "67888",
    "line1": "1 67888U 26035K   26181.34608770  .00012407  00000+0  38594-3 0  9991",
    "line2": "2 67888  97.2837 114.3740 0001498  91.1165 269.0249 15.33448950 21254"
  },
  {
    "name": "STARLINK-36372",
    "noradId": "67889",
    "line1": "1 67889U 26035L   26181.80831295  .00015621  00000+0  48513-3 0  9996",
    "line2": "2 67889  97.2834 114.8181 0001640 105.8386 254.3037 15.33448649 21328"
  },
  {
    "name": "STARLINK-36363",
    "noradId": "67890",
    "line1": "1 67890U 26035M   26181.75937362  .00030226  00000+0  93452-3 0  9994",
    "line2": "2 67890  97.2837 114.7284 0001579  90.9006 269.2418 15.33455111 21319"
  },
  {
    "name": "STARLINK-36816",
    "noradId": "67891",
    "line1": "1 67891U 26035N   26181.77420580  .00026720  00000+0  82639-3 0  9995",
    "line2": "2 67891  97.2840 113.7984 0001710  99.3263 260.8173 15.33469924 21250"
  },
  {
    "name": "STARLINK-36813",
    "noradId": "67892",
    "line1": "1 67892U 26035P   26181.38415588  .00012714  00000+0  39539-3 0  9994",
    "line2": "2 67892  97.2828 114.4732 0001782  97.2891 262.8554 15.33452581 21266"
  },
  {
    "name": "STARLINK-36803",
    "noradId": "67893",
    "line1": "1 67893U 26035Q   26181.78384051  .00034468  00000+0  10644-2 0  9994",
    "line2": "2 67893  97.2842 114.8461 0001647  91.2067 268.9365 15.33465619 21325"
  },
  {
    "name": "STARLINK-36846",
    "noradId": "67894",
    "line1": "1 67894U 26035R   26181.76209264  .00032093  00000+0  99179-3 0  9998",
    "line2": "2 67894  97.2837 114.7247 0001688  86.4498 273.6938 15.33457472 21316"
  },
  {
    "name": "STARLINK-36866",
    "noradId": "67895",
    "line1": "1 67895U 26035S   26181.75121341  .00019088  00000+0  59171-3 0  9994",
    "line2": "2 67895  97.2831 114.7373 0002375 100.0451 260.1060 15.33463968 21311"
  },
  {
    "name": "STARLINK-36877",
    "noradId": "67896",
    "line1": "1 67896U 26035T   26181.39775267  .00012983  00000+0  40381-3 0  9997",
    "line2": "2 67896  97.2856 114.4570 0001954  37.2590 322.8788 15.33441388 21261"
  },
  {
    "name": "STARLINK-36870",
    "noradId": "67897",
    "line1": "1 67897U 26035U   26181.33793368 -.00001588  00000+0 -46898-4 0  9995",
    "line2": "2 67897  97.2860 114.3869 0001989 105.7312 254.4150 15.33433820 21252"
  },
  {
    "name": "STARLINK-36810",
    "noradId": "67898",
    "line1": "1 67898U 26035V   26181.80559875  .00024857  00000+0  76922-3 0  9993",
    "line2": "2 67898  97.2835 114.8200 0001695  94.4369 265.7067 15.33466311 21320"
  },
  {
    "name": "STARLINK-36878",
    "noradId": "67899",
    "line1": "1 67899U 26035W   26181.77840477  .00038551  00000+0  11897-2 0  9996",
    "line2": "2 67899  97.2844 114.8539 0001600  91.6688 268.4738 15.33463487 21321"
  },
  {
    "name": "STARLINK-36361",
    "noradId": "67900",
    "line1": "1 67900U 26035X   26181.78112478  .00039301  00000+0  12127-2 0  9994",
    "line2": "2 67900  97.2845 114.8522 0001746  95.0077 265.1365 15.33461219 21329"
  },
  {
    "name": "STARLINK-36336",
    "noradId": "67901",
    "line1": "1 67901U 26035Y   26181.34064741  .00021559  00000+0  66863-3 0  9999",
    "line2": "2 67901  97.2838 114.3792 0001735 100.2303 259.9135 15.33424485 21257"
  },
  {
    "name": "STARLINK-36876",
    "noradId": "67902",
    "line1": "1 67902U 26035Z   26181.78655587  .00028193  00000+0  87154-3 0  9999",
    "line2": "2 67902  97.2837 114.8470 0002990 102.2814 257.8763 15.33471145 21325"
  },
  {
    "name": "STARLINK-36257",
    "noradId": "67903",
    "line1": "1 67903U 26035AA  26181.75393064  .00035381  00000+0  10928-2 0  9997",
    "line2": "2 67903  97.2834 114.7355 0001341  64.2351 295.9030 15.33454534 21318"
  },
  {
    "name": "STARLINK-36814",
    "noradId": "67904",
    "line1": "1 67904U 26036A   26181.78354566  .00028327  00000+0  10350-2 0  9997",
    "line2": "2 67904  43.0017 327.0057 0000770 283.0310  77.0456 15.27579638 21014"
  },
  {
    "name": "STARLINK-36729",
    "noradId": "67905",
    "line1": "1 67905U 26036B   26180.86555310  .00028678  00000+0  10467-2 0  9994",
    "line2": "2 67905  43.0028 332.1381 0001671 270.4948  89.5712 15.27608129 20876"
  },
  {
    "name": "STARLINK-36763",
    "noradId": "67906",
    "line1": "1 67906U 26036C   26181.77711994  .00029403  00000+0  10741-2 0  9990",
    "line2": "2 67906  43.0031 326.9365 0001443 276.2517  83.8170 15.27569634 21016"
  },
  {
    "name": "STARLINK-36742",
    "noradId": "67907",
    "line1": "1 67907U 26036D   26181.11938816  .00029603  00000+0  10805-2 0  9996",
    "line2": "2 67907  43.0011 330.5990 0001206 275.3061  84.7653 15.27593860 20913"
  },
  {
    "name": "STARLINK-36827",
    "noradId": "67908",
    "line1": "1 67908U 26036E   26180.78860321  .00025956  00000+0  94883-3 0  9990",
    "line2": "2 67908  42.9995 332.4090 0001912 278.1507  81.9128 15.27600066 20862"
  },
  {
    "name": "STARLINK-36822",
    "noradId": "67909",
    "line1": "1 67909U 26036F   26181.76554005  .00015035  00000+0  55424-3 0  9994",
    "line2": "2 67909  43.0006 326.8458 0001241 285.0975  74.9740 15.27610333 21012"
  },
  {
    "name": "STARLINK-36847",
    "noradId": "67910",
    "line1": "1 67910U 26036G   26181.76169699  .00029453  00000+0  10759-2 0  9997",
    "line2": "2 67910  42.9970 326.8126 0000407  94.8951 265.1947 15.27570956 21016"
  }
]